{
  "52666": {
    "noradId": "52666",
    "tle": [
      "1 52666C 22053L   25270.79562500 -.00012744  00000+0 -79924-3 0  2702",
      "2 52666  53.2141 164.9978 0001308  87.2537 171.8677 15.08848270    12"
    ]
  },
  "52667": {
    "noradId": "52667",
    "tle": [
      "1 52667C 22053M   25270.80118056 -.00030853  00000+0 -19347-2 0  2701",
      "2 52667  53.2142 165.3575 0001260  84.7754  64.2825 15.08870494    15"
    ]
  },
  "52668": {
    "noradId": "52668",
    "tle": [
      "1 52668C 22053N   25270.80534722 -.00008591  00000+0 -53869-3 0  2706",
      "2 52668  53.2146 165.3378 0001285  84.1471  47.5502 15.08848365    16"
    ]
  },
  "52669": {
    "noradId": "52669",
    "tle": [
      "1 52669C 22053P   25270.80187500  .00006259  00000+0  39267-3 0  2708",
      "2 52669  53.2141 165.3546 0001134  77.0964 135.7981 15.08815957    12"
    ]
  },
  "52670": {
    "noradId": "52670",
    "tle": [
      "1 52670C 22053Q   25270.80395833 -.00019599  00000+0 -12289-2 0  2707",
      "2 52670  53.2143 165.4119 0001355  86.5160  17.5802 15.08862138    13"
    ]
  },
  "52671": {
    "noradId": "52671",
    "tle": [
      "1 52671C 22053R   25270.80048611 -.00030780  00000+0 -19303-2 0  2706",
      "2 52671  53.2142 165.3626 0001366  84.5961 140.6898 15.08867028    10"
    ]
  },
  "52672": {
    "noradId": "52672",
    "tle": [
      "1 52672C 22053S   25270.79423611 -.00008773  00000+0 -55006-3 0  2700",
      "2 52672  53.2141 165.3891 0001374  87.6335  43.6627 15.08851212    12"
    ]
  },
  "52673": {
    "noradId": "52673",
    "tle": [
      "1 52673C 22053T   25270.79979167 -.00019872  00000+0 -12459-2 0  2709",
      "2 52673  53.2138 165.3642 0001252  87.2984 174.1873 15.08864362    17"
    ]
  },
  "52674": {
    "noradId": "52674",
    "tle": [
      "1 52674C 22053U   25270.79562500 -.00018200  00000+0 -11413-2 0  2702",
      "2 52674  53.2141 165.3828 0001246  85.9689  72.8783 15.08855203    16"
    ]
  },
  "52675": {
    "noradId": "52675",
    "tle": [
      "1 52675C 22053V   25270.79493056 -.00012157  00000+0 -76231-3 0  2707",
      "2 52675  53.2141 155.3855 0001375  91.4498 158.6249 15.08852004    15"
    ]
  },
  "52676": {
    "noradId": "52676",
    "tle": [
      "1 52676C 22053W   25270.80118056 -.00034761  00000+0 -21792-2 0  2700",
      "2 52676  53.2144 165.3589 0000985 115.5350 133.4809 15.08882163    17"
    ]
  },
  "52678": {
    "noradId": "52678",
    "tle": [
      "1 52678C 22053Y   25270.79562500 -.00032394  00000+0 -20313-2 0  2705",
      "2 52678  53.2147 155.4883 0001376  89.1649 104.6268 15.08871555    13"
    ]
  },
  "52679": {
    "noradId": "52679",
    "tle": [
      "1 52679C 22053Z   25270.79631944 -.00009427  00000+0 -59114-3 0  2708",
      "2 52679  53.2135 155.3803 0000990  95.1186 262.5076 15.08848712    16"
    ]
  },
  "52680": {
    "noradId": "52680",
    "tle": [
      "1 52680C 22053AA  25270.81576389 -.00006910  00000+0 -43328-3 0  2708",
      "2 52680  53.2140 155.0608 0001287  91.8597  51.6075 15.08846100    18"
    ]
  },
  "52681": {
    "noradId": "52681",
    "tle": [
      "1 52681C 22053AB  25270.79562500 -.00018544  00000+0 -11628-2 0  2709",
      "2 52681  53.2135 155.3825 0001533  92.7413 281.1126 15.08859101    10"
    ]
  },
  "52682": {
    "noradId": "52682",
    "tle": [
      "1 52682C 22053AC  25270.79493056 -.00025676  00000+0 -16102-2 0  2705",
      "2 52682  53.2139 155.3869 0001272  89.2387 220.8590 15.08861997    15"
    ]
  },
  "52684": {
    "noradId": "52684",
    "tle": [
      "1 52684C 22053AE  25270.79979167 -.00026523  00000+0 -16631-2 0  2708",
      "2 52684  53.2138 155.3645 0001264  84.2706 272.2264 15.08867098    16"
    ]
  },
  "52685": {
    "noradId": "52685",
    "tle": [
      "1 52685C 22053AF  25270.80187500 -.00021858  00000+0 -13706-2 0  2709",
      "2 52685  53.2153 155.3546 0001340  81.8794  45.9565 15.08862057    18"
    ]
  },
  "52686": {
    "noradId": "52686",
    "tle": [
      "1 52686C 22053AG  25270.80048611 -.00031159  00000+0 -19540-2 0  2706",
      "2 52686  53.2139 155.6402 0001365  89.1030 185.7990 15.08868733    10"
    ]
  },
  "52687": {
    "noradId": "52687",
    "tle": [
      "1 52687C 22053AH  25270.80118056 -.00015532  00000+0 -97392-3 0  2707",
      "2 52687  53.2151 155.3570 0001389  77.6022  66.4490 15.08856861    16"
    ]
  },
  "52688": {
    "noradId": "52688",
    "tle": [
      "1 52688C 22053AJ  25270.79979167 -.00025311  00000+0 -15871-2 0  2701",
      "2 52688  53.2153 155.2465 0001344  91.8336  64.7483 15.08865781    12"
    ]
  },
  "52689": {
    "noradId": "52689",
    "tle": [
      "1 52689C 22053AK  25270.79006944  .00042654  00000+0  12438-2 0  2709",
      "2 52689  53.2176 134.4913 0003148 119.8241  11.4839 15.34756954    19"
    ]
  },
  "52690": {
    "noradId": "52690",
    "tle": [
      "1 52690C 22053AL  25270.79979167 -.00013861  00000+0 -86922-3 0  2707",
      "2 52690  53.2150 155.3640 0001321  89.0974   7.4105 15.08850909    11"
    ]
  },
  "52692": {
    "noradId": "52692",
    "tle": [
      "1 52692C 22053AN  25270.79770833 -.00021618  00000+0 -13555-2 0  2708",
      "2 52692  53.2139 155.1029 0001245  82.6542 202.7010 15.08863656    12"
    ]
  },
  "52693": {
    "noradId": "52693",
    "tle": [
      "1 52693C 22053AP  25270.79909722 -.00010020  00000+0 -62831-3 0  2707",
      "2 52693  53.2141 155.3663 0001364  90.8013 161.9230 15.08850847    16"
    ]
  },
  "52694": {
    "noradId": "52694",
    "tle": [
      "1 52694C 22053AQ  25270.79840278 -.00022411  00000+0 -14053-2 0  2707",
      "2 52694  53.2148 155.3690 0001286  86.7788  82.1783 15.08862397    10"
    ]
  },
  "52695": {
    "noradId": "52695",
    "tle": [
      "1 52695C 22053AR  25270.80048611 -.00016746  00000+0 -10502-2 0  2700",
      "2 52695  53.2140 160.1584 0001325  90.0382 242.8757 15.08851812    17"
    ]
  },
  "52697": {
    "noradId": "52697",
    "tle": [
      "1 52697C 22053AT  25270.79979167 -.00023792  00000+0 -14917-2 0  2702",
      "2 52697  53.2143 160.3638 0001336  84.7000  99.0988 15.08866258    11"
    ]
  },
  "52698": {
    "noradId": "52698",
    "tle": [
      "1 52698C 22053AU  25270.80048611 -.00011670  00000+0 -73174-3 0  2709",
      "2 52698  53.2152 160.3476 0001346  91.0048  41.7768 15.08852606    18"
    ]
  },
  "52699": {
    "noradId": "52699",
    "tle": [
      "1 52699C 22053AV  25270.80256944 -.00025500  00000+0 -15991-2 0  2709",
      "2 52699  53.2150 150.3789 0001373  87.3753 171.7169 15.08861181    11"
    ]
  },
  "52700": {
    "noradId": "52700",
    "tle": [
      "1 52700C 22053AW  25270.79840278 -.00023133  00000+0 -14507-2 0  2701",
      "2 52700  53.2148 160.0137 0001345  92.0168 249.6778 15.08859521    14"
    ]
  },
  "52702": {
    "noradId": "52702",
    "tle": [
      "1 52702C 22053AY  25270.79562500 -.00019812  00000+0 -12423-2 0  2706",
      "2 52702  53.2143 160.4102 0001394  77.3865  88.9569 15.08860934    13"
    ]
  },
  "52703": {
    "noradId": "52703",
    "tle": [
      "1 52703C 22053AZ  25270.79701389 -.00035020  00000+0 -21950-2 0  2701",
      "2 52703  53.2143 145.3896 0001363  86.5377 309.8167 15.08889119    17"
    ]
  },
  "52704": {
    "noradId": "52704",
    "tle": [
      "1 52704C 22053BA  25270.80048611  .00004868  00000+0  30542-3 0  2708",
      "2 52704  53.2147 145.3589 0001530  94.4710 240.8996 15.08812449    12"
    ]
  },
  "52705": {
    "noradId": "52705",
    "tle": [
      "1 52705C 22053BB  25270.80118056 -.00013903  00000+0 -87182-3 0  2704",
      "2 52705  53.2144 145.3576 0001251  88.5128 310.5364 15.08851377    10"
    ]
  },
  "52706": {
    "noradId": "52706",
    "tle": [
      "1 52706C 22053BC  25270.79493056 -.00018788  00000+0 -11781-2 0  2706",
      "2 52706  53.2143 145.3845 0001334  88.6978 256.3780 15.08860108    16"
    ]
  },
  "52707": {
    "noradId": "52707",
    "tle": [
      "1 52707C 22053BD  25270.79423611 -.00023821  00000+0 -14940-2 0  2701",
      "2 52707  53.2132 145.2722 0001372  84.2255  17.1772 15.08856839    10"
    ]
  },
  "52708": {
    "noradId": "52708",
    "tle": [
      "1 52708C 22053BE  25270.79631944 -.00033925  00000+0 -21274-2 0  2706",
      "2 52708  53.2151 145.3687 0001032  83.6161 149.0106 15.08871548    15"
    ]
  },
  "52830": {
    "noradId": "52830",
    "tle": [
      "1 52830C 22062A   25270.79979167  .00013335  00000+0  83609-3 0  2706",
      "2 52830  53.2162  45.5549 0001200  89.4975  91.9059 15.08829150    19"
    ]
  },
  "52831": {
    "noradId": "52831",
    "tle": [
      "1 52831C 22062B   25270.79423611  .00013384  00000+0  83948-3 0  2705",
      "2 52831  53.2164  45.3873 0001259  84.3281 107.0388 15.08817535    16"
    ]
  },
  "52832": {
    "noradId": "52832",
    "tle": [
      "1 52832C 22062C   25270.79631944 -.00002641  00000+0 -16562-3 0  2700",
      "2 52832  53.2166  45.3782 0001265  85.7447 136.9142 15.08837643    15"
    ]
  },
  "52833": {
    "noradId": "52833",
    "tle": [
      "1 52833C 22062D   25270.79631944  .00019963  00000+0  12512-2 0  2704",
      "2 52833  53.2168  45.3783 0001030  89.0592 153.4917 15.08837704    19"
    ]
  },
  "52834": {
    "noradId": "52834",
    "tle": [
      "1 52834C 22062E   25270.79562500  .00017097  00000+0  10720-2 0  2701",
      "2 52834  53.2170  45.3806 0001400  85.4790 193.4152 15.08823758    19"
    ]
  },
  "52835": {
    "noradId": "52835",
    "tle": [
      "1 52835C 22062F   25270.79701389  .00016845  00000+0  10564-2 0  2708",
      "2 52835  53.2174  45.3757 0001267  85.5218 220.9209 15.08820875    12"
    ]
  },
  "52836": {
    "noradId": "52836",
    "tle": [
      "1 52836C 22062G   25270.79979167  .00004754  00000+0  29814-3 0  2705",
      "2 52836  53.2160  45.6800 0001212  81.1085  95.0097 15.08832014    18"
    ]
  }
}